STARLINK-4135           
1 53248U 22086G   26196.83335647  .00085875  00000+0  41671-2 0  9996
2 53248  53.1589 343.5142 0001836  62.4482 132.2444 15.17759886  5788
STARLINK-4128           
1 53249U 22086H   26196.83335647  .00055306  00000+0  17822-2 0  9994
2 53249  53.1610 335.4530 0001248  78.8797 183.4689 15.31673870  5639
STARLINK-4059           
1 53250U 22086J   26196.83335647  .00136219  00000+0  41403-2 0  9991
2 53250  53.1599 337.0890 0001766  68.9895  52.6148 15.33071252  5734
STARLINK-4129           
1 53251U 22086K   26196.67332284  .00009895  00000+0  35524-3 0  9995
2 53251  53.1604 336.4708 0001201  95.2825 264.8312 15.29314666220422
STARLINK-4132           
1 53252U 22086L   26196.79982593  .00001696  00000+0  66378-4 0  9996
2 53252  53.1600 335.7478 0000848  80.7591 279.3506 15.31704507220460
STARLINK-4133           
1 53253U 22086M   26196.83335647  .00059086  00000+0  19020-2 0  9990
2 53253  53.1591 335.8223 0000920  60.9117  72.4915 15.31678628  5836
STARLINK-4134           
1 53254U 22086N   26196.55024379 -.00000250  00000+0  23829-5 0  9992
2 53254  53.1608 339.8835 0001172  64.0150 296.0962 15.08829045220381
STARLINK-4142           
1 53255U 22086P   26196.73328367 -.00000189  00000+0  62418-5 0  9995
2 53255  53.1612 339.0471 0001252  88.1404 271.9731 15.08834871220393
STARLINK-4147           
1 53256U 22086Q   26196.67072398 -.00000344  00000+0 -35322-5 0  9997
2 53256  53.1618 339.3317 0001039  83.6544 276.4566 15.08834934220385
STARLINK-4144           
1 53257U 22086R   26196.78848453  .00000488  00000+0  48784-4 0  9995
2 53257  53.1623 338.8025 0001606  63.2990 296.8166 15.08835544220404
STARLINK-4127           
1 53258U 22086S   26196.39840331 -.00000445  00000+0 -98690-5 0  9997
2 53258  53.1617 340.5548 0001502  72.4048 287.7108 15.08841928220340
STARLINK-4140           
1 53259U 22086T   26196.75165715  .00001495  00000+0  11205-3 0  9993
2 53259  53.1605 338.6055 0001209  95.4385 264.6745 15.08821292220402
STARLINK-4062           
1 53261U 22086V   26196.83335647  .00100670  00000+0  32870-2 0  9993
2 53261  53.1609 337.2336 0000872  83.9582 204.1065 15.30960607  5787
STARLINK-4085           
1 53262U 22086W   26196.83335647  .00480705  00000+0  14554-1 0  9992
2 53262  53.1670 337.1415 0000960  63.4857 232.1459 15.31642522  5837
STARLINK-4130           
1 53263U 22086X   26196.81019677  .00002912  00000+0  11312-3 0  9994
2 53263  53.1593 335.5915 0001136  91.2279 268.8852 15.29382758220451
STARLINK-3950           
1 53264U 22086Y   26196.83335647  .00088266  00000+0  33444-2 0  9990
2 53264  53.1589 337.7123 0000884 107.8269 273.7080 15.26163424  5783
STARLINK-4097           
1 53265U 22086Z   26196.83335647  .00092027  00000+0  37721-2 0  9993
2 53265  53.1609 337.5397 0001640  67.9868 123.4823 15.23510942  5841
STARLINK-4058           
1 53266U 22086AA  26196.83335647  .00094890  00000+0  31402-2 0  9994
2 53266  53.1596 337.1786 0001064  81.1034 275.0998 15.30559311  5789
STARLINK-4060           
1 53267U 22086AB  26196.83335647  .00097348  00000+0  32626-2 0  9995
2 53267  53.1589 337.2210 0000935  60.2944 333.8609 15.30135932  5689
STARLINK-4109           
1 53268U 22086AC  26195.72550457 -.00007610  00000+0 -27948-3 0  9998
2 53268  53.1625 341.0285 0001985  58.0843 302.0349 15.25970225220285
STARLINK-4122           
1 53272U 22086AG  26196.36608840  .00000202  00000+0  16694-4 0  9999
2 53272  53.1615 327.2725 0001047  79.5746 280.5375 15.35400588220520
STARLINK-4051           
1 53273U 22086AH  26196.77292448  .00002871  00000+0  98545-4 0  9997
2 53273  53.1605 325.7398 0001560 112.7870 247.3297 15.33562792220570
STARLINK-4050           
1 53274U 22086AJ  26196.76787281  .00000099  00000+0  14330-4 0  9991
2 53274  53.1619 325.5915 0001028  63.1942 296.9165 15.33550960220586
STARLINK-4179           
1 53275U 22086AK  26196.83335647  .00105910  00000+0  31658-2 0  9993
2 53275  53.1608 326.1426 0001069  75.5052 287.3624 15.33754562  5739
STARLINK-4174           
1 53276U 22086AL  26196.83335647  .00100825  00000+0  30305-2 0  9992
2 53276  53.1603 325.3815 0001746  47.7531 307.5483 15.33605860  5849
STARLINK-4178           
1 53277U 22086AM  26196.83335647  .00055695  00000+0  21037-2 0  9999
2 53277  53.1611 326.3697 0000963  68.1402 238.0739 15.26488956  5739
STARLINK-4180           
1 53278U 22086AN  26196.77426362  .00000574  00000+0  30263-4 0  9997
2 53278  53.1598 326.5269 0001104  74.2664 285.8459 15.31703394220568
STARLINK-4169           
1 53280U 22086AQ  26196.83335647  .00017353  00000+0  74438-3 0  9996
2 53280  53.1588 282.0962 0001350 113.6529  40.3293 15.22836968  5832
STARLINK-4164           
1 53282U 22086AS  26196.73584626  .00000082  00000+0  13818-4 0  9997
2 53282  53.1619 325.6706 0001228  85.2828 274.8315 15.33551436220574
STARLINK-4175           
1 53283U 22086AT  26196.74041780  .00000801  00000+0  35687-4 0  9995
2 53283  53.1616 325.8161 0001081  81.9424 278.1701 15.33545386220574
