OBJECT_NAME,OBJECT_ID,EPOCH,MEAN_MOTION,ECCENTRICITY,INCLINATION,RA_OF_ASC_NODE,ARG_OF_PERICENTER,MEAN_ANOMALY,EPHEMERIS_TYPE,CLASSIFICATION_TYPE,NORAD_CAT_ID,ELEMENT_SET_NO,REV_AT_EPOCH,BSTAR,MEAN_MOTION_DOT,MEAN_MOTION_DDOT
STARLINK-4135,2022-086G,2026-07-15T20:00:01.999008,15.17759886,.0001836,53.1589,343.5142,62.4482,132.2444,0,U,53248,999,578,.41671E-2,.85875E-3,0
STARLINK-4128,2022-086H,2026-07-15T20:00:01.999008,15.31673870,.0001248,53.1610,335.4530,78.8797,183.4689,0,U,53249,999,563,.17822E-2,.55306E-3,0
STARLINK-4059,2022-086J,2026-07-15T20:00:01.999008,15.33071252,.0001766,53.1599,337.0890,68.9895,52.6148,0,U,53250,999,573,.41403E-2,.136219E-2,0
STARLINK-4129,2022-086K,2026-07-15T16:09:35.093376,15.29314666,.0001201,53.1604,336.4708,95.2825,264.8312,0,U,53251,999,22042,.35524E-3,.9895E-4,0
STARLINK-4132,2022-086L,2026-07-15T19:11:44.960352,15.31704507,.0000848,53.1600,335.7478,80.7591,279.3506,0,U,53252,999,22046,.66378E-4,.1696E-4,0
STARLINK-4133,2022-086M,2026-07-15T20:00:01.999008,15.31678628,.000092,53.1591,335.8223,60.9117,72.4915,0,U,53253,999,583,.1902E-2,.59086E-3,0
STARLINK-4134,2022-086N,2026-07-15T13:12:21.063456,15.08829045,.00011723,53.1608,339.8835,64.0150,296.0962,0,U,53254,999,22038,.2382856E-5,-.25E-5,0
STARLINK-4142,2022-086P,2026-07-15T17:35:55.709088,15.08834871,.0001252,53.1612,339.0471,88.1404,271.9731,0,U,53255,999,22039,.62418E-5,-.189E-5,0
STARLINK-4147,2022-086Q,2026-07-15T16:05:50.551872,15.08834934,.0001039,53.1618,339.3317,83.6544,276.4566,0,U,53256,999,22038,-.35322E-5,-.344E-5,0
STARLINK-4144,2022-086R,2026-07-15T18:55:25.063392,15.08835544,.0001606,53.1623,338.8025,63.2990,296.8166,0,U,53257,999,22040,.48784E-4,.488E-5,0
STARLINK-4127,2022-086S,2026-07-15T09:33:42.045984,15.08841928,.00015029,53.1617,340.5548,72.4048,287.7108,0,U,53258,999,22034,-.9869044E-5,-.445E-5,0
STARLINK-4140,2022-086T,2026-07-15T18:02:23.177760,15.08821292,.0001209,53.1605,338.6055,95.4385,264.6745,0,U,53259,999,22040,.11205E-3,.1495E-4,0
STARLINK-4062,2022-086V,2026-07-15T20:00:01.999008,15.30960607,.0000872,53.1609,337.2336,83.9582,204.1065,0,U,53261,999,578,.3287E-2,.10067E-2,0
STARLINK-4085,2022-086W,2026-07-15T20:00:01.999008,15.31642522,.000096,53.1670,337.1415,63.4857,232.1459,0,U,53262,999,583,.14554E-1,.480705E-2,0
STARLINK-4130,2022-086X,2026-07-15T19:26:41.000928,15.29382758,.0001136,53.1593,335.5915,91.2279,268.8852,0,U,53263,999,22045,.11312E-3,.2912E-4,0
STARLINK-3950,2022-086Y,2026-07-15T20:00:01.999008,15.26163424,.0000884,53.1589,337.7123,107.8269,273.7080,0,U,53264,999,578,.33444E-2,.88266E-3,0
STARLINK-4097,2022-086Z,2026-07-15T20:00:01.999008,15.23510942,.000164,53.1609,337.5397,67.9868,123.4823,0,U,53265,999,584,.37721E-2,.92027E-3,0
STARLINK-4058,2022-086AA,2026-07-15T20:00:01.999008,15.30559311,.0001064,53.1596,337.1786,81.1034,275.0998,0,U,53266,999,578,.31402E-2,.9489E-3,0
STARLINK-4060,2022-086AB,2026-07-15T20:00:01.999008,15.30135932,.0000935,53.1589,337.2210,60.2944,333.8609,0,U,53267,999,568,.32626E-2,.97348E-3,0
STARLINK-4109,2022-086AC,2026-07-14T17:24:43.594848,15.25970225,.00019852,53.1625,341.0285,58.0843,302.0349,0,U,53268,999,22028,-.2794797E-3,-.761E-4,0
STARLINK-4122,2022-086AG,2026-07-15T08:47:10.037760,15.35400588,.00010472,53.1615,327.2725,79.5746,280.5375,0,U,53272,999,22052,.16694154E-4,.202E-5,0
STARLINK-4051,2022-086AH,2026-07-15T18:33:00.675072,15.33562792,.000156,53.1605,325.7398,112.7870,247.3297,0,U,53273,999,22057,.98545E-4,.2871E-4,0
STARLINK-4050,2022-086AJ,2026-07-15T18:25:44.210784,15.33550960,.0001028,53.1619,325.5915,63.1942,296.9165,0,U,53274,999,22058,.1433E-4,.99E-6,0
STARLINK-4179,2022-086AK,2026-07-15T20:00:01.999008,15.33754562,.0001069,53.1608,326.1426,75.5052,287.3624,0,U,53275,999,573,.31658E-2,.10591E-2,0
STARLINK-4174,2022-086AL,2026-07-15T20:00:01.999008,15.33605860,.0001746,53.1603,325.3815,47.7531,307.5483,0,U,53276,999,584,.30305E-2,.100825E-2,0
STARLINK-4178,2022-086AM,2026-07-15T20:00:01.999008,15.26488956,.0000963,53.1611,326.3697,68.1402,238.0739,0,U,53277,999,573,.21037E-2,.55695E-3,0
STARLINK-4180,2022-086AN,2026-07-15T18:34:56.376768,15.31703394,.0001104,53.1598,326.5269,74.2664,285.8459,0,U,53278,999,22056,.30263E-4,.574E-5,0
STARLINK-4169,2022-086AQ,2026-07-15T20:00:01.999008,15.22836968,.000135,53.1588,282.0962,113.6529,40.3293,0,U,53280,999,583,.74438E-3,.17353E-3,0
STARLINK-4164,2022-086AS,2026-07-15T17:39:37.116864,15.33551436,.0001228,53.1619,325.6706,85.2828,274.8315,0,U,53282,999,22057,.13818E-4,.82E-6,0
STARLINK-4175,2022-086AT,2026-07-15T17:46:12.097920,15.33545386,.0001081,53.1616,325.8161,81.9424,278.1701,0,U,53283,999,22057,.35687E-4,.801E-5,0
